IRIDIUM 154             
1 43574U 18061F   26192.99942591  .00000158  00000+0  49361-4 0  9997
2 43574  86.3941  46.4287 0002297  89.9133 270.2326 14.34217644416964
IRIDIUM 163             
1 43575U 18061G   26193.05016679  .00000115  00000+0  33860-4 0  9995
2 43575  86.3937  46.3218 0002149  85.2915 274.8526 14.34217525416944
IRIDIUM 156             
1 43576U 18061H   26193.02479677  .00000092  00000+0  25757-4 0  9994
2 43576  86.3937  46.3397 0002092  91.9496 268.1939 14.34217676416938
IRIDIUM 164             
1 43577U 18061J   26193.00577139  .00000157  00000+0  48909-4 0  9991
2 43577  86.3939  46.3886 0002307  89.4265 270.7195 14.34217478416976
IRIDIUM 159             
1 43578U 18061K   26193.04382398  .00000011  00000+0 -30010-5 0  9992
2 43578  86.3934  46.3089 0002043  85.0366 275.1063 14.34217138416941
IRIDIUM 180             
1 43922U 19002A   26192.83401699  .00000087  00000+0  23912-4 0  9997
2 43922  86.3990 343.2937 0002234  90.8281 269.3171 14.34217524392520
IRIDIUM 176             
1 43923U 19002B   26192.83136667  .00000442  00000+0  66206-4 0  9996
2 43923  86.6107 343.2347 0002341  89.5783 270.5702 14.72246476402874
IRIDIUM 168             
1 43924U 19002C   26191.36253025  .00000045  00000+0  89730-5 0  9999
2 43924  86.3988 343.9865 0002243  90.7210 269.4243 14.34217872392298
IRIDIUM 173             
1 43925U 19002D   26192.81498631 -.00000075  00000+0 -33981-4 0  9996
2 43925  86.3988 343.2679 0002046  91.6671 268.4759 14.34217203392487
IRIDIUM 169             
1 43926U 19002E   26192.94451016  .00000033  00000+0  43305-5 0  9991
2 43926  86.4219  14.8394 0001788 100.7313 259.4087 14.38613023393780
IRIDIUM 172             
1 43927U 19002F   26192.80864550  .00000126  00000+0  37768-4 0  9996
2 43927  86.3985 343.2782 0002179  90.0881 270.0565 14.34217820392494
IRIDIUM 175             
1 43928U 19002G   26193.22908725  .00000177  00000+0  46268-4 0  9998
2 43928  86.4513 280.0540 0005169 121.1648 239.0060 14.43626275402598
IRIDIUM 171             
1 43929U 19002H   26193.34776555  .00000061  00000+0  14841-4 0  9990
2 43929  86.3996 343.3618 0002212  95.2668 264.8780 14.34217604392563
IRIDIUM 170             
1 43930U 19002J   26192.83753797  .00000448  00000+0  67144-4 0  9991
2 43930  86.6107 343.2344 0002301  85.7902 274.3578 14.72247065402885
IRIDIUM 167             
1 43931U 19002K   26192.85304319  .00000078  00000+0  20897-4 0  9999
2 43931  86.3989 343.2822 0002236  99.3604 260.7845 14.34217726392499
IRIDIUM 181             
1 56726U 23068S   26192.71838801  .00000182  00000+0  47990-4 0  9994
2 56726  86.4476  46.5324 0002424  84.2447 275.9030 14.43311052165976
IRIDIUM 177             
1 56727U 23068T   26193.33737024  .00000582  00000+0  73497-4 0  9994
2 56727  86.1983 316.8503 0002146  93.5696 266.5771 14.80027574170089
IRIDIUM 174             
1 56728U 23068U   26192.82511439  .00000454  00000+0  68119-4 0  9991
2 56728  86.6115 343.3894 0002032  85.2408 274.9041 14.72255517169647
IRIDIUM 178             
1 56729U 23068V   26192.98830060  .00000215  00000+0  25017-4 0  9998
2 56729  86.6533  14.9936 0002317  90.1856 269.9631 14.80025197170030
IRIDIUM 179             
1 56730U 23068W   26192.98295999  .00000502  00000+0  62978-4 0  9992
2 56730  86.6765  24.0490 0002289  92.1825 267.9659 14.80033677170032
